{
    "links": {
        "self": "http://www.neowsapp.com/rest/v1/neo/3986761?api_key=iIulBulltgU6a56xZRHN4H3l9WmuAYTsLGpBGhQ2"
    },
    "id": "3986761",
    "neo_reference_id": "3986761",
    "name": "(2020 BJ1)",
    "designation": "2020 BJ1",
    "nasa_jpl_url": "http://ssd.jpl.nasa.gov/sbdb.cgi?sstr=3986761",
    "absolute_magnitude_h": 24.2,
    "estimated_diameter": {
        "kilometers": {
            "estimated_diameter_min": 0.0384197891,
            "estimated_diameter_max": 0.0859092601
        },
        "meters": {
            "estimated_diameter_min": 38.4197891064,
            "estimated_diameter_max": 85.9092601232
        },
        "miles": {
            "estimated_diameter_min": 0.0238729428,
            "estimated_diameter_max": 0.0533815229
        },
        "feet": {
            "estimated_diameter_min": 126.0491808919,
            "estimated_diameter_max": 281.8545369825
        }
    },
    "is_potentially_hazardous_asteroid": false,
    "close_approach_data": [
        {
            "close_approach_date": "2020-01-29",
            "close_approach_date_full": "2020-Jan-29 06:29",
            "epoch_date_close_approach": 1580279340000,
            "relative_velocity": {
                "kilometers_per_second": "11.0222408262",
                "kilometers_per_hour": "39680.0669744935",
                "miles_per_hour": "24655.6505042346"
            },
            "miss_distance": {
                "astronomical": "0.039601134",
                "lunar": "15.404841126",
                "kilometers": "5924245.29598458",
                "miles": "3681155.329484004"
            },
            "orbiting_body": "Earth"
        },
        {
            "close_approach_date": "2108-03-28",
            "close_approach_date_full": "2108-Mar-28 19:02",
            "epoch_date_close_approach": 4362404520000,
            "relative_velocity": {
                "kilometers_per_second": "9.4381500263",
                "kilometers_per_hour": "33977.3400947903",
                "miles_per_hour": "21112.197793899"
            },
            "miss_distance": {
                "astronomical": "0.1419237549",
                "lunar": "55.2083406561",
                "kilometers": "21231491.435442063",
                "miles": "13192637.0272759494"
            },
            "orbiting_body": "Earth"
        }
    ],
    "orbital_data": {
        "orbit_id": "2",
        "orbit_determination_date": "2020-01-22 07:39:47",
        "first_observation_date": "2020-01-19",
        "last_observation_date": "2020-01-21",
        "data_arc_in_days": 2,
        "observations_used": 42,
        "orbit_uncertainty": "8",
        "minimum_orbit_intersection": ".0337435",
        "jupiter_tisserand_invariant": "3.824",
        "epoch_osculation": "2458868.5",
        "eccentricity": ".5273168507808984",
        "semi_major_axis": "1.848923748722171",
        "inclination": "4.79761481116363",
        "ascending_node_longitude": "102.560909560447",
        "orbital_period": "918.2838113911343",
        "perihelion_distance": ".8739551002119827",
        "perihelion_argument": "72.49801836604172",
        "aphelion_distance": "2.82389239723236",
        "perihelion_time": "2458912.393985913813",
        "mean_anomaly": "342.7919922654042",
        "mean_motion": ".3920356599280845",
        "equinox": "J2000",
        "orbit_class": {
            "orbit_class_type": "APO",
            "orbit_class_description": "Near-Earth asteroid orbits which cross the Earth’s orbit similar to that of 1862 Apollo",
            "orbit_class_range": "a (semi-major axis) > 1.0 AU; q (perihelion) < 1.017 AU"
        }
    },
    "is_sentry_object": false
}